start=new Date('2022-11-29T00:00:00.000Z').valueOf();
sats=[{"ECCENTRICITY":"0.00039380","APOAPSIS":"352.531","RA_OF_ASC_NODE":"346.1271","SITE":"AFWTR","EPOCH":"2022-11-28T22:00:01.999584","RCS_SIZE":"LARGE","TIME_SYSTEM":"UTC","PERIOD":"91.536","CENTER_NAME":"EARTH","MEAN_MOTION_DDOT":"0.0000000000000","GP_ID":"219007051","ELEMENT_SET_NO":"999","MEAN_MOTION":"15.73157402","DECAY_DATE":null,"OBJECT_NAME":"STARLINK-5259","COUNTRY_CODE":"US","TLE_LINE1":"1 54209U 22141BE  22332.91668981  .00105551  00000-0  74820-3 0  9991","NORAD_CAT_ID":"54209","PERIAPSIS":"347.232","REV_AT_EPOCH":"527","INCLINATION":"53.2158","OBJECT_ID":"2022-141BE","BSTAR":"0.00074820000000","SEMIMAJOR_AXIS":"6728.017","EPHEMERIS_TYPE":"0","LAUNCH_DATE":"2022-10-28","OBJECT_TYPE":"PAYLOAD","TLE_LINE2":"2 54209  53.2158 346.1271 0003938   4.9969 281.6747 15.73157402  5274","REF_FRAME":"TEME","CLASSIFICATION_TYPE":"U","FILE":"3672543","ARG_OF_PERICENTER":"4.9969","MEAN_ANOMALY":"281.6747","MEAN_ELEMENT_THEORY":"SGP4","MEAN_MOTION_DOT":"0.00105551"}];
